NORAD_CAT_ID,OBJECT_NAME,OBJECT_TYPE,EPOCH,MEAN_MOTION,ECCENTRICITY,INCLINATION,RA_OF_ASC_NODE,ARG_OF_PERICENTER,MEAN_ANOMALY,BSTAR,MEAN_MOTION_DOT,MEAN_MOTION_DDOT,TLE_LINE0,TLE_LINE1,TLE_LINE2,SEMIMAJOR_AXIS,PERIOD,APOGEE,PERIGEE,DECAYED
52377.0,STARLINK-3805,PAYLOAD,2024-06-12 17:21:58,15.08836049,0.0001363,53.2158,159.8166,91.4844,268.6304,3.1644e-05,2.16e-06,0.0,0 STARLINK-3805,1 52377U 22045AY  24164.72359138  .00000216  00000-0  31644-4 0  9993,2 52377  53.2158 159.8166 0001363  91.4844 268.6304 15.08836049120050,6917.892,95.438,540.7,538.815,0.0
52377.0,STARLINK-3805,PAYLOAD,2024-06-13 09:15:49,15.08842967,0.0001356,53.216,156.8427,90.4382,269.6766,5.4493e-05,5.8e-06,0.0,0 STARLINK-3805,1 52377U 22045AY  24165.38598670  .00000580  00000-0  54493-4 0  9993,2 52377  53.2160 156.8427 0001356  90.4382 269.6766 15.08842967120158,6917.871,95.437,540.674,538.798,0.0
52377.0,STARLINK-3805,PAYLOAD,2024-06-14 04:20:27,15.08838019,0.0001374,53.2161,153.274,90.1882,269.9267,5.4717e-05,5.83e-06,0.0,0 STARLINK-3805,1 52377U 22045AY  24166.18086992  .00000583  00000-0  54717-4 0  9993,2 52377  53.2161 153.2740 0001374  90.1882 269.9267 15.08838019120275,6917.886,95.438,540.702,538.801,0.0
52377.0,STARLINK-3805,PAYLOAD,2024-06-15 05:46:36,15.08845381,0.0001431,53.2163,148.5162,90.8061,269.3095,6.8021e-05,7.95e-06,0.0,0 STARLINK-3805,1 52377U 22045AY  24167.24070491  .00000795  00000-0  68021-4 0  9996,2 52377  53.2163 148.5162 0001431  90.8061 269.3095 15.08845381120433,6917.864,95.437,540.719,538.739,0.0
52377.0,STARLINK-3805,PAYLOAD,2024-06-15 21:40:28,15.0883865,0.0001483,53.2165,145.5447,97.068,263.048,3.0512e-05,1.98e-06,0.0,0 STARLINK-3805,1 52377U 22045AY  24167.90310976  .00000198  00000-0  30512-4 0  9995,2 52377  53.2165 145.5447 0001483  97.0680 263.0480 15.08838650120532,6917.885,95.438,540.775,538.724,0.0
52377.0,STARLINK-3805,PAYLOAD,2024-06-16 05:37:24,15.08837178,0.0001508,53.2172,144.0579,97.2748,262.8416,1.2483e-05,-8.9e-07,0.0,0 STARLINK-3805,1 52377U 22045AY  24168.23431194 -.00000089  00000-0  12483-4 0  9995,2 52377  53.2172 144.0579 0001508  97.2748 262.8416 15.08837178120580,6917.889,95.438,540.797,538.711,0.0
52377.0,STARLINK-3805,PAYLOAD,2024-06-16 15:09:43,15.08835436,0.000149,53.2171,142.2739,97.4651,262.6511,-8.2456e-07,-3.01e-06,0.0,0 STARLINK-3805,1 52377U 22045AY  24168.63175419 -.00000301  00000-0 -82456-6 0  9991,2 52377  53.2171 142.2739 0001490  97.4651 262.6511 15.08835436120648,6917.894,95.438,540.79,538.729,0.0
52377.0,STARLINK-3805,PAYLOAD,2024-06-17 15:00:30,15.08838507,0.0001463,53.2171,137.8127,91.4877,268.6283,1.588e-05,-3.5e-07,0.0,0 STARLINK-3805,1 52377U 22045AY  24169.62535232 -.00000035  00000-0  15880-4 0  9992,2 52377  53.2171 137.8127 0001463  91.4877 268.6283 15.08838507120793,6917.885,95.438,540.762,538.738,0.0
52377.0,STARLINK-3805,PAYLOAD,2024-06-18 05:18:58,15.08835793,0.0001383,53.2166,135.1356,87.9526,272.1625,3.1638e-05,2.16e-06,0.0,0 STARLINK-3805,1 52377U 22045AY  24170.22151530  .00000216  00000-0  31638-4 0  9994,2 52377  53.2166 135.1356 0001383  87.9526 272.1625 15.08835793120888,6917.893,95.438,540.715,538.802,0.0
52377.0,STARLINK-3805,PAYLOAD,2024-06-18 06:54:22,15.08836326,0.0001387,53.2166,134.8383,87.8444,272.2707,3.5182e-05,2.72e-06,0.0,0 STARLINK-3805,1 52377U 22045AY  24170.28775500  .00000272  00000-0  35182-4 0  9999,2 52377  53.2166 134.8383 0001387  87.8444 272.2707 15.08836326120892,6917.892,95.438,540.716,538.797,0.0
52377.0,STARLINK-3805,PAYLOAD,2024-06-18 14:51:17,15.0883849,0.0001426,53.2169,133.3515,87.668,272.4475,6.4092e-05,7.32e-06,0.0,0 STARLINK-3805,1 52377U 22045AY  24170.61895304  .00000732  00000-0  64092-4 0  9994,2 52377  53.2169 133.3515 0001426  87.6680 272.4475 15.08838490120944,6917.885,95.438,540.736,538.764,0.0
52377.0,STARLINK-3805,PAYLOAD,2024-06-19 05:09:45,15.0884602,0.0001409,53.2169,130.6752,87.2039,272.9115,7.0304e-05,8.31e-06,0.0,0 STARLINK-3805,1 52377U 22045AY  24171.21510748  .00000831  00000-0  70304-4 0  9990,2 52377  53.2169 130.6752 0001409  87.2039 272.9115 15.08846020121037,6917.862,95.437,540.702,538.752,0.0
52377.0,STARLINK-3805,PAYLOAD,2024-06-19 06:45:08,15.08847706,0.0001421,53.2169,130.3775,87.7314,272.3841,8.3565e-05,1.043e-05,0.0,0 STARLINK-3805,1 52377U 22045AY  24171.28134570  .00001043  00000-0  83565-4 0  9991,2 52377  53.2169 130.3775 0001421  87.7314 272.3841 15.08847706121047,6917.857,95.437,540.705,538.739,0.0
52377.0,STARLINK-3805,PAYLOAD,2024-06-19 14:42:04,15.08836945,0.0001463,53.2166,128.8906,82.9358,277.18,3.9412e-07,-2.82e-06,0.0,0 STARLINK-3805,1 52377U 22045AY  24171.61255503 -.00000282  00000-0  39412-6 0  9997,2 52377  53.2166 128.8906 0001463  82.9358 277.1800 15.08836945121099,6917.89,95.438,540.767,538.743,0.0
52377.0,STARLINK-3805,PAYLOAD,2024-06-20 03:25:10,15.08832417,0.0001393,53.216,126.5111,87.8831,272.2321,1.8663e-05,9e-08,0.0,0 STARLINK-3805,1 52377U 22045AY  24172.14247836  .00000009  00000-0  18663-4 0  9995,2 52377  53.2160 126.5111 0001393  87.8831 272.2321 15.08832417121171,6917.904,95.438,540.732,538.805,0.0
52377.0,STARLINK-3805,PAYLOAD,2024-06-20 20:54:24,15.08839766,0.0001368,53.2166,123.2397,90.1532,269.9617,5.5574e-08,-2.87e-06,0.0,0 STARLINK-3805,1 52377U 22045AY  24172.87111508 -.00000287  00000-0  55574-7 0  9995,2 52377  53.2166 123.2397 0001368  90.1532 269.9617 15.08839766121281,6917.881,95.438,540.692,538.8,0.0
52377.0,STARLINK-3805,PAYLOAD,2024-06-21 00:05:10,15.08842111,0.0001404,53.2158,122.6459,86.6479,273.4673,1.1492e-05,-1.05e-06,0.0,0 STARLINK-3805,1 52377U 22045AY  24173.00359340 -.00000105  00000-0  11492-4 0  9996,2 52377  53.2158 122.6459 0001404  86.6479 273.4673 15.08842111121308,6917.874,95.437,540.71,538.768,0.0
52377.0,STARLINK-3805,PAYLOAD,2024-06-21 06:26:42,15.08844451,0.0001402,53.2167,121.4549,93.8679,266.2473,5.4232e-05,5.75e-06,0.0,0 STARLINK-3805,1 52377U 22045AY  24173.26854984  .00000575  00000-0  54232-4 0  9997,2 52377  53.2167 121.4549 0001402  93.8679 266.2473 15.08844451121346,6917.867,95.437,540.702,538.762,0.0
52377.0,STARLINK-3805,PAYLOAD,2024-06-21 15:59:01,15.08839427,0.0001237,53.2171,119.6707,116.7861,243.3258,-1.9626e-05,-6e-06,0.0,0 STARLINK-3805,1 52377U 22045AY  24173.66599380 -.00000600  00000-0 -19626-4 0  9996,2 52377  53.2171 119.6707 0001237 116.7861 243.3258 15.08839427121401,6917.882,95.438,540.603,538.891,0.0
52377.0,STARLINK-3805,PAYLOAD,2024-06-22 01:31:20,15.08837401,0.0001514,53.2169,117.8861,104.9298,255.1862,6.2126e-05,7.01e-06,0.0,0 STARLINK-3805,1 52377U 22045AY  24174.06343424  .00000701  00000-0  62126-4 0  9990,2 52377  53.2169 117.8861 0001514 104.9298 255.1862 15.08837401121468,6917.888,95.438,540.801,538.706,0.0
52377.0,STARLINK-3805,PAYLOAD,2024-06-22 06:17:29,15.08841035,0.0001424,53.2161,116.9951,98.7775,261.3379,7.8388e-05,9.6e-06,0.0,0 STARLINK-3805,1 52377U 22045AY  24174.26215177  .00000960  00000-0  78388-4 0  9999,2 52377  53.2161 116.9951 0001424  98.7775 261.3379 15.08841035121493,6917.877,95.437,540.727,538.757,0.0
52377.0,STARLINK-3805,PAYLOAD,2024-06-22 20:35:58,15.08837979,0.0001509,53.2164,114.3164,110.4535,249.6619,-2.3124e-05,-6.56e-06,0.0,0 STARLINK-3805,1 52377U 22045AY  24174.85831779 -.00000656  00000-0 -23124-4 0  9998,2 52377  53.2164 114.3164 0001509 110.4535 249.6619 15.08837979121582,6917.887,95.438,540.795,538.708,0.0
52377.0,STARLINK-3805,PAYLOAD,2024-06-23 02:57:30,15.08840955,0.0001456,53.2165,113.1269,105.3174,254.7979,-1.0811e-06,-3.05e-06,0.0,0 STARLINK-3805,1 52377U 22045AY  24175.12327535 -.00000305  00000-0 -10811-5 0  9990,2 52377  53.2165 113.1269 0001456 105.3174 254.7979 15.08840955121628,6917.877,95.437,540.75,538.735,0.0
52377.0,STARLINK-3805,PAYLOAD,2024-06-23 06:08:17,15.08839887,0.0001488,53.2167,112.5327,105.4697,254.6459,-7.0972e-06,-4.01e-06,0.0,0 STARLINK-3805,1 52377U 22045AY  24175.25575622 -.00000401  00000-0 -70972-5 0  9997,2 52377  53.2167 112.5327 0001488 105.4697 254.6459 15.08839887121640,6917.881,95.438,540.775,538.716,0.0
52377.0,STARLINK-3805,PAYLOAD,2024-06-24 04:23:44,15.08802513,0.0001424,53.2176,108.369,94.4402,265.6753,-0.0002596,-4.413e-05,0.0,0 STARLINK-3805,1 52377U 22045AY  24176.18315101 -.00004413  00000-0 -25960-3 0  9996,2 52377  53.2176 108.3690 0001424  94.4402 265.6753 15.08802513121787,6917.995,95.44,540.845,538.875,0.0
52377.0,STARLINK-3805,PAYLOAD,2024-06-25 02:39:07,15.08824061,0.0001571,53.2177,104.2073,68.0687,292.0472,-4.4389e-05,-9.94e-06,0.0,0 STARLINK-3805,1 52377U 22045AY  24177.11050481 -.00000994  00000-0 -44389-4 0  9994,2 52377  53.2177 104.2073 0001571  68.0687 292.0472 15.08824061121923,6917.929,95.439,540.881,538.707,0.0
52377.0,STARLINK-3805,PAYLOAD,2024-06-26 02:29:51,15.08865142,9.73e-05,53.2169,99.7463,77.1168,282.9933,0.00030105,4.51e-05,0.0,0 STARLINK-3805,1 52377U 22045AY  24178.10406589  .00004510  00000-0  30105-3 0  9994,2 52377  53.2169  99.7463 0000973  77.1168 282.9933 15.08865142122077,6917.804,95.436,540.342,538.995,0.0
52377.0,STARLINK-3805,PAYLOAD,2024-06-27 00:45:16,15.08850379,0.0001329,53.2143,95.5889,154.2452,205.8607,2.3499e-05,8.6e-07,0.0,0 STARLINK-3805,1 52377U 22045AY  24179.03144139  .00000086  00000-0  23499-4 0  9990,2 52377  53.2143  95.5889 0001329 154.2452 205.8607 15.08850379122218,6917.849,95.437,540.633,538.794,0.0
52377.0,STARLINK-3805,PAYLOAD,2024-06-27 11:52:58,15.0884859,9.77e-05,53.2153,93.505,100.887,259.2232,-3.3095e-05,-8.15e-06,0.0,0 STARLINK-3805,1 52377U 22045AY  24179.49512439 -.00000815  00000-0 -33095-4 0  9997,2 52377  53.2153  93.5050 0000977 100.8870 259.2232 15.08848590122282,6917.854,95.437,540.395,539.043,0.0
52377.0,STARLINK-3805,PAYLOAD,2024-06-28 00:36:04,15.08848988,0.0001195,53.2164,91.1254,105.0147,255.0978,-0.00021073,-3.641e-05,0.0,0 STARLINK-3805,1 52377U 22045AY  24180.02504869 -.00003641  00000-0 -21073-3 0  9998,2 52377  53.2164  91.1254 0001195 105.0147 255.0978 15.08848988122362,6917.853,95.437,540.545,538.891,0.0
